STARLINK-5019           
1 55407U 23014S   26068.42548265  .00001216  00000+0  10961-3 0  9998
2 55407  69.9993  65.2133 0003935 271.9946  88.0763 14.98345014172018
ICEYE-X40               
1 60549U 24149CK  26068.75921699  .00003253  00000+0  28352-3 0  9999
2 60549  97.6865 146.8579 0005983  65.2061 294.9783 14.97556326 85195
